{
  "type": "FeatureCollection",
  "features": [
    {
      "type": "Feature",
      "properties": {
        "norad_id": 29268,
        "name": "ARIRANG-2 (KOMPSAT-2)",
        "group": "resource",
        "lat": 41.02486731012755,
        "lon": -179.5364183410016,
        "alt_km": 682.1101411703412,
        "timestamp": "2025-12-25T11:37:44.078221+00:00",
        "meta_object_name": "ARIRANG-2 (KOMPSAT-2)",
        "meta_object_id": "2006-031A",
        "meta_epoch": "2025-12-25T05:08:47.442336",
        "meta_mean_motion": 14.64503804,
        "meta_eccentricity": 0.0013138,
        "meta_inclination": 97.8256,
        "meta_ra_of_asc_node": 187.0791,
        "meta_arg_of_pericenter": 266.1935,
        "meta_mean_anomaly": 152.114,
        "meta_ephemeris_type": 0,
        "meta_classification_type": "U",
        "meta_norad_cat_id": 29268,
        "meta_element_set_no": 999,
        "meta_rev_at_epoch": 3601,
        "meta_bstar": 5.5938e-05,
        "meta_mean_motion_dot": 2.52e-06,
        "meta_mean_motion_ddot": 0,
        "tle_line1": "1 29268U 06031A   25359.21443799  .00000252  00000+0  55938-4 0  9992",
        "tle_line2": "2 29268  97.8256 187.0791 0013138 266.1935 152.1140 14.64503804 36016"
      },
      "geometry": {
        "type": "Point",
        "coordinates": [
          -179.5364183410016,
          41.02486731012755
        ]
      }
    },
    {
      "type": "Feature",
      "properties": {
        "norad_id": 29709,
        "name": "LAPAN-TUBSAT",
        "group": "resource",
        "lat": -46.26451633177843,
        "lon": 161.3148231712176,
        "alt_km": 627.2852931731213,
        "timestamp": "2025-12-25T11:37:44.078231+00:00",
        "meta_object_name": "LAPAN-TUBSAT",
        "meta_object_id": "2007-001A",
        "meta_epoch": "2025-12-25T05:45:44.190720",
        "meta_mean_motion": 14.85687563,
        "meta_eccentricity": 0.0013201,
        "meta_inclination": 98.1264,
        "meta_ra_of_asc_node": 349.6539,
        "meta_arg_of_pericenter": 36.929,
        "meta_mean_anomaly": 323.2831,
        "meta_ephemeris_type": 0,
        "meta_classification_type": "U",
        "meta_norad_cat_id": 29709,
        "meta_element_set_no": 999,
        "meta_rev_at_epoch": 2532,
        "meta_bstar": 4.1708e-05,
        "meta_mean_motion_dot": 3.05e-06,
        "meta_mean_motion_ddot": 0,
        "tle_line1": "1 29709U 07001A   25359.24009480  .00000305  00000+0  41708-4 0  9997",
        "tle_line2": "2 29709  98.1264 349.6539 0013201  36.9290 323.2831 14.85687563 25321"
      },
      "geometry": {
        "type": "Point",
        "coordinates": [
          161.3148231712176,
          -46.26451633177843
        ]
      }
    },
    {
      "type": "Feature",
      "properties": {
        "norad_id": 31113,
        "name": "HAIYANG-1B",
        "group": "resource",
        "lat": 53.554805323874554,
        "lon": 174.68430073194253,
        "alt_km": 788.8960347244665,
        "timestamp": "2025-12-25T11:37:44.078245+00:00",
        "meta_object_name": "HAIYANG-1B",
        "meta_object_id": "2007-010A",
        "meta_epoch": "2025-12-24T19:56:29.461920",
        "meta_mean_motion": 14.30968874,
        "meta_eccentricity": 0.00136155,
        "meta_inclination": 98.3329,
        "meta_ra_of_asc_node": 342.6102,
        "meta_arg_of_pericenter": 3.3672,
        "meta_mean_anomaly": 356.7601,
        "meta_ephemeris_type": 0,
        "meta_classification_type": "U",
        "meta_norad_cat_id": 31113,
        "meta_element_set_no": 999,
        "meta_rev_at_epoch": 97569,
        "meta_bstar": 5.8199808e-05,
        "meta_mean_motion_dot": 1.12e-06,
        "meta_mean_motion_ddot": 0,
        "tle_line1": "1 31113U 07010A   25358.83089655  .00000112  00000+0  58200-4 0  9996",
        "tle_line2": "2 31113  98.3329 342.6102 0013615   3.3672 356.7601 14.30968874975694"
      },
      "geometry": {
        "type": "Point",
        "coordinates": [
          174.68430073194253,
          53.554805323874554
        ]
      }
    },
    {
      "type": "Feature",
      "properties": {
        "norad_id": 31598,
        "name": "COSMO-SKYMED 1",
        "group": "resource",
        "lat": -71.47997183723663,
        "lon": -150.59670889536187,
        "alt_km": 587.7644347022715,
        "timestamp": "2025-12-25T11:37:44.078259+00:00",
        "meta_object_name": "COSMO-SKYMED 1",
        "meta_object_id": "2007-023A",
        "meta_epoch": "2025-12-25T03:55:42.924000",
        "meta_mean_motion": 14.95856019,
        "meta_eccentricity": 0.0001256,
        "meta_inclination": 97.884,
        "meta_ra_of_asc_node": 184.6451,
        "meta_arg_of_pericenter": 77.5669,
        "meta_mean_anomaly": 282.5692,
        "meta_ephemeris_type": 0,
        "meta_classification_type": "U",
        "meta_norad_cat_id": 31598,
        "meta_element_set_no": 999,
        "meta_rev_at_epoch": 376,
        "meta_bstar": 0.00030031,
        "meta_mean_motion_dot": 3.297e-05,
        "meta_mean_motion_ddot": 0,
        "tle_line1": "1 31598U 07023A   25359.16369125  .00003297  00000+0  30031-3 0  9995",
        "tle_line2": "2 31598  97.8840 184.6451 0001256  77.5669 282.5692 14.95856019  3765"
      },
      "geometry": {
        "type": "Point",
        "coordinates": [
          -150.59670889536187,
          -71.47997183723663
        ]
      }
    },
    {
      "type": "Feature",
      "properties": {
        "norad_id": 31698,
        "name": "TERRASAR-X",
        "group": "resource",
        "lat": -67.37790992257172,
        "lon": 22.965857056345673,
        "alt_km": 516.7039113043629,
        "timestamp": "2025-12-25T11:37:44.078269+00:00",
        "meta_object_name": "TERRASAR-X",
        "meta_object_id": "2007-026A",
        "meta_epoch": "2025-12-24T13:47:55.330080",
        "meta_mean_motion": 15.19151427,
        "meta_eccentricity": 0.00018153,
        "meta_inclination": 97.4444,
        "meta_ra_of_asc_node": 3.7823,
        "meta_arg_of_pericenter": 79.9991,
        "meta_mean_anomaly": 280.1449,
        "meta_ephemeris_type": 0,
        "meta_classification_type": "U",
        "meta_norad_cat_id": 31698,
        "meta_element_set_no": 999,
        "meta_rev_at_epoch": 2671,
        "meta_bstar": 4.8169766e-05,
        "meta_mean_motion_dot": 9.45e-06,
        "meta_mean_motion_ddot": 0,
        "tle_line1": "1 31698U 07026A   25358.57494595  .00000945  00000+0  48170-4 0  9994",
        "tle_line2": "2 31698  97.4444   3.7823 0001815  79.9991 280.1449 15.19151427 26713"
      },
      "geometry": {
        "type": "Point",
        "coordinates": [
          22.965857056345673,
          -67.37790992257172
        ]
      }
    },
    {
      "type": "Feature",
      "properties": {
        "norad_id": 32060,
        "name": "WORLDVIEW-1 (WV-1)",
        "group": "resource",
        "lat": 7.92306980131983,
        "lon": -62.18749516036067,
        "alt_km": 498.08015674272247,
        "timestamp": "2025-12-25T11:37:44.078279+00:00",
        "meta_object_name": "WORLDVIEW-1 (WV-1)",
        "meta_object_id": "2007-041A",
        "meta_epoch": "2025-12-25T01:25:18.755040",
        "meta_mean_motion": 15.23954697,
        "meta_eccentricity": 0.000316,
        "meta_inclination": 97.3824,
        "meta_ra_of_asc_node": 116.3599,
        "meta_arg_of_pericenter": 355.3843,
        "meta_mean_anomaly": 4.7365,
        "meta_ephemeris_type": 0,
        "meta_classification_type": "U",
        "meta_norad_cat_id": 32060,
        "meta_element_set_no": 999,
        "meta_rev_at_epoch": 1635,
        "meta_bstar": 0.00035344,
        "meta_mean_motion_dot": 8.482e-05,
        "meta_mean_motion_ddot": 0,
        "tle_line1": "1 32060U 07041A   25359.05924485  .00008482  00000+0  35344-3 0  9997",
        "tle_line2": "2 32060  97.3824 116.3599 0003160 355.3843   4.7365 15.23954697 16352"
      },
      "geometry": {
        "type": "Point",
        "coordinates": [
          -62.18749516036067,
          7.92306980131983
        ]
      }
    },
    {
      "type": "Feature",
      "properties": {
        "norad_id": 32289,
        "name": "YAOGAN-3",
        "group": "resource",
        "lat": -44.308634679821225,
        "lon": -161.73118602112896,
        "alt_km": 605.5935824324806,
        "timestamp": "2025-12-25T11:37:44.078290+00:00",
        "meta_object_name": "YAOGAN-3",
        "meta_object_id": "2007-055A",
        "meta_epoch": "2025-12-25T04:10:33.751200",
        "meta_mean_motion": 14.89917685,
        "meta_eccentricity": 0.0001288,
        "meta_inclination": 97.8354,
        "meta_ra_of_asc_node": 25.6863,
        "meta_arg_of_pericenter": 86.704,
        "meta_mean_anomaly": 273.4325,
        "meta_ephemeris_type": 0,
        "meta_classification_type": "U",
        "meta_norad_cat_id": 32289,
        "meta_element_set_no": 999,
        "meta_rev_at_epoch": 97994,
        "meta_bstar": 0.00027118,
        "meta_mean_motion_dot": 2.554e-05,
        "meta_mean_motion_ddot": 0,
        "tle_line1": "1 32289U 07055A   25359.17400175  .00002554  00000+0  27118-3 0  9997",
        "tle_line2": "2 32289  97.8354  25.6863 0001288  86.7040 273.4325 14.89917685979948"
      },
      "geometry": {
        "type": "Point",
        "coordinates": [
          -161.73118602112896,
          -44.308634679821225
        ]
      }
    }
  ]
}